[
    {
        "Altitude(m)": 617710.702441176,
        "Argument of Periapsis(deg)": 0.0,
        "Eccentricity": 0.0,
        "Inclination(deg)": 60.0,
        "Latitude(deg)": -41.102830100504974,
        "Longitude(deg)": -105.03337330332428,
        "Mean Anomaly(deg)": 310.9091000000001,
        "RAAN(deg)": 25.0,
        "Satellite Name": "Test1 129",
        "Satellite Number": 129,
        "Semi-Major Axis(m)": 6980739.136638005,
        "Time(s)": 0
    },
    {
        "Altitude(m)": 617518.0007944858,
        "Argument of Periapsis(deg)": 0.00010418945913296404,
        "Eccentricity": 0.0,
        "Inclination(deg)": 60.0,
        "Latitude(deg)": -40.6370370985747,
        "Longitude(deg)": -104.53657838609,
        "Mean Anomaly(deg)": 311.5292061454619,
        "RAAN(deg)": 24.99957995086026,
        "Satellite Name": "Test1 129",
        "Satellite Number": 129,
        "Semi-Major Axis(m)": 6980739.136638005,
        "Time(s)": 10
    }
]